{
    "links": {
        "self": "http://www.neowsapp.com/rest/v1/neo/3358115?api_key=iIulBulltgU6a56xZRHN4H3l9WmuAYTsLGpBGhQ2"
    },
    "id": "3358115",
    "neo_reference_id": "3358115",
    "name": "(2006 VB2)",
    "designation": "2006 VB2",
    "nasa_jpl_url": "http://ssd.jpl.nasa.gov/sbdb.cgi?sstr=3358115",
    "absolute_magnitude_h": 19.7,
    "estimated_diameter": {
        "kilometers": {
            "estimated_diameter_min": 0.3051792326,
            "estimated_diameter_max": 0.6824015094
        },
        "meters": {
            "estimated_diameter_min": 305.1792325939,
            "estimated_diameter_max": 682.4015094011
        },
        "miles": {
            "estimated_diameter_min": 0.1896295249,
            "estimated_diameter_max": 0.4240245083
        },
        "feet": {
            "estimated_diameter_min": 1001.2442334633,
            "estimated_diameter_max": 2238.8501681036
        }
    },
    "is_potentially_hazardous_asteroid": false,
    "close_approach_data": [
        {
            "close_approach_date": "2006-11-24",
            "close_approach_date_full": "2006-Nov-24 09:46",
            "epoch_date_close_approach": 1164361560000,
            "relative_velocity": {
                "kilometers_per_second": "26.2764047301",
                "kilometers_per_hour": "94595.0570284417",
                "miles_per_hour": "58777.6897408115"
            },
            "miss_distance": {
                "astronomical": "0.2307964628",
                "lunar": "89.7798240292",
                "kilometers": "34526659.238414236",
                "miles": "21453871.2215230168"
            },
            "orbiting_body": "Earth"
        }
    ],
    "orbital_data": {
        "orbit_id": "8",
        "orbit_determination_date": "2017-04-06 09:07:42",
        "first_observation_date": "2006-11-09",
        "last_observation_date": "2006-11-21",
        "data_arc_in_days": 12,
        "observations_used": 20,
        "orbit_uncertainty": "9",
        "minimum_orbit_intersection": ".230492",
        "jupiter_tisserand_invariant": "3.594",
        "epoch_osculation": "2454050.5",
        "eccentricity": ".7882776433377406",
        "semi_major_axis": "1.795353572807556",
        "inclination": "15.84564137312305",
        "ascending_node_longitude": "4.478095515780171",
        "orbital_period": "878.665171741735",
        "perihelion_distance": ".3801164894768231",
        "perihelion_argument": "171.4124938941704",
        "aphelion_distance": "3.21059065613829",
        "perihelion_time": "2454108.606747769924",
        "mean_anomaly": "336.1929459936291",
        "mean_motion": ".4097123814369353",
        "equinox": "J2000",
        "orbit_class": {
            "orbit_class_type": "APO",
            "orbit_class_description": "Near-Earth asteroid orbits which cross the Earth’s orbit similar to that of 1862 Apollo",
            "orbit_class_range": "a (semi-major axis) > 1.0 AU; q (perihelion) < 1.017 AU"
        }
    },
    "is_sentry_object": false
}